#aV2023 11 19  0  0  0.00000000     288 DD+AD WGS84 FIT  NGA
## 2289      0.00000000   300.00000000 60267 0.0000000000000
+   32     1  2  3  4  5  6  7  8  9 10 11 12 13 14 15 16 17
+         18 19 20 21 22 23 24 25 26 27 28 29 30 31 32  0  0
+          0  0  0  0  0  0  0  0  0  0  0  0  0  0  0  0  0
+          0  0  0  0  0  0  0  0  0  0  0  0  0  0  0  0  0
+          0  0  0  0  0  0  0  0  0  0  0  0  0  0  0  0  0
++         2  2  2  2  2  2  2  2  2  2  2  2  2  2  2  2  2
++         2  2  2  2  2  2  2  2  2  2  2  2  2  2  2  0  0
++         0  0  0  0  0  0  0  0  0  0  0  0  0  0  0  0  0
++         0  0  0  0  0  0  0  0  0  0  0  0  0  0  0  0  0
++         0  0  0  0  0  0  0  0  0  0  0  0  0  0  0  0  0
%c cc cc ccc ccc cccc cccc cccc cccc ccccc ccccc ccccc ccccc
%c cc cc ccc ccc cccc cccc cccc cccc ccccc ccccc ccccc ccccc
%f  0.0000000  0.000000000  0.00000000000  0.000000000000000
%f  0.0000000  0.000000000  0.00000000000  0.000000000000000
%i    0    0    0    0      0      0      0      0         0
%i    0    0    0    0      0      0      0      0         0
/*      NGA, ST. LOUIS,MO.                                  
/*   EPHEMERIS COMPUTED FROM 2 DAYS OF DATA                 
/*   EPOCHA v8 SMOOTHER                                     
/*   G2139 IERS2010 SATIGS SATAPC                           
*  2023 11 19  5 15  0.00000000
P  1  19991.647960  12426.152530  12288.761608    163.223107                    
V  1   8755.954673  13447.698258 -26757.750419      0.000965                    
P  2  21179.970825  14713.535372   7284.421879   -527.039583                    
V  2   4330.656451   7665.806233 -29986.095731      0.050677                    
P  3  14564.518401   2818.126984  21877.422774     -4.443814                    
V  3  -9735.740358  26338.619302   3171.605569      0.258127                    
P  4  25618.482821   1672.528092   7073.473877    216.841474                    
V  4  -8549.330593   3602.637880  30016.025486      0.103807                    
P  5  -8608.913112 -16307.370743 -19261.932651   -150.929193                    
V  5   8632.284350 -22519.435657  15438.686025     -0.014494                    
P  6  -1532.488247 -20121.982597  17288.251615    502.077965                    
V  6  14552.735605  16261.775321  20391.902920     -0.102457                    
P  7  15342.112967  -4675.035535 -20767.006852      9.699445                    
V  7  16899.896752  21617.570277   6981.471125     -0.099193                    
P  8  21188.204605   6633.838887 -14959.216859   -152.794926                    
V  8 -18000.707899   5408.270557 -22812.719907     -0.018245                    
P  9  25381.958597  -7207.296048  -3405.497156      1.339567                    
V  9   4665.443826   2027.484183  31237.251773      0.113158                    
P 10 -10754.104070  23947.503596  -2402.583798    -61.953866                    
V 10  -1114.829451  -3956.397088 -32236.522424     -0.015197                    
P 11 -10749.353373 -23167.516432   7410.863027   -466.192679                    
V 11   7537.572636   6072.292827  29950.495590     -0.160922                    
P 12 -14051.568505  -5341.722958  21618.416289   -448.540865                    
V 12  11606.532972 -25598.385272   1275.255325     -0.040839                    
P 13 -12128.020508 -13298.669783 -19805.216064    596.824390                    
V 13  24587.748326  -1507.532542 -13980.293010      0.040684                    
P 14  13527.332492 -21993.901034  -5794.318768    247.334774                    
V 14    202.543845   8121.619863 -30407.247825      0.107198                    
P 15 -21922.188389  -4606.696139 -14920.741497     98.560740                    
V 15  16520.798535  -7759.979927 -22405.969526      0.037609                    
P 16   2745.210631  20677.643268 -16485.034762   -419.529811                    
V 16 -10694.124235  17623.465759  21174.734852      0.067138                    
P 17  16720.587658 -13028.114056  16521.155679    723.089105                    
V 17  20131.739770   -581.385763 -21276.519520     -0.004320                    
P 18 -13770.216430   6421.185747 -21788.236343   -483.195944                    
V 18 -16913.544276 -21855.813731   4067.352143     -0.107769                    
P 19   7671.583330 -14541.174420  20589.022620    400.900553                    
V 19  26654.561692   -483.288002 -10515.274829      0.052195                    
P 20  -2057.570173 -24841.028029  -9384.969269    400.902940                    
V 20   4877.286245 -11227.570348  28316.463015     -0.019322                    
P 21  20669.643892  17114.054852   4046.713148    143.888636                    
V 21   1696.692822   4464.197771 -30642.395365     -0.010224                    
P 22  10295.448056 -24595.757424   2137.565309     81.269083                    
V 22   3162.812533   -857.575558 -31469.278180     -0.069685                    
P 23 -15614.335984  16111.828517 -14054.332665    101.365291                    
V 23   4047.022128 -17551.673055 -24773.622327      0.064317                    
P 24 -21353.403913 -14421.206292   6885.605480   -374.599060                    
V 24  -4168.853747  -8799.757794 -29224.792660     -0.088429                    
P 25 -16871.729176   8597.936010  18187.507224    478.013031                    
V 25   6349.197729 -23104.731445  16786.250980      0.016255                    
P 26  -1862.584394  25318.757835  -7277.873634    215.633368                    
V 26  -6209.190516   7755.504902  29467.953545     -0.026949                    
P 27   8637.966722  13602.777249 -21438.763917    -71.920326                    
V 27 -26098.142120   4810.435988  -7141.034548     -0.052007                    
P 28    140.070549  19379.794409  18137.940644    -49.473386                    
V 28 -16378.476315 -16335.770161  17555.507183     -0.087161                    
P 29 -26076.351079   4367.959456  -3105.133927   -610.188042                    
V 29  -4055.227146  -1948.364146  31655.440878      0.000889                    
P 30   7502.929243 -14823.848935 -20553.540670   -466.708445                    
V 30  17530.324669  19932.047236  -8193.266622      0.040682                    
P 31   6970.007164  22446.943879  11752.465781   -225.872154                    
V 31 -11770.202414 -10351.908434  26709.165126     -0.003566                    
P 32 -12207.193938  15066.550257  18239.476424   -587.379332                    
V 32 -22810.549756   2303.253278 -17549.228462     -0.043708                    
EOF
